SIRION PATHFINDER-2     
1 43759U 18099B   26183.11258434  .00004849  00000+0  26541-3 0  9998
2 43759  97.4241 231.8157 0007298 241.4797 118.5700 15.14677097414888
CORVUS BC4              
1 43767U 18099K   26182.08100218  .00005142  00000+0  29796-3 0  9990
2 43767  97.4054 224.6547 0006930 321.1885  38.8848 15.12603535414508
M2 PATHFINDER           
1 45727U 20037E   26183.00934071  .00003286  00000+0  23731-3 0  9998
2 45727  97.8146  14.4070 0012827 102.4952 257.7710 15.04743478327724
NETSAT-4                
1 46504U 20068U   26182.96506679  .00021218  00000+0  46129-3 0  9990
2 46504  97.8597 192.3974 0003392 253.0481 107.0394 15.44359065318054
NETSAT-3                
1 46505U 20068V   26182.98258756  .00022211  00000+0  50200-3 0  9992
2 46505  97.8649 190.6147 0002885 283.0124  77.0800 15.43195093317964
NETSAT-1                
1 46506U 20068W   26183.26102793  .00013631  00000+0  40391-3 0  9990
2 46506  97.8745 185.0671 0003139 337.8079  22.3027 15.34987582317610
NETSAT-2                
1 46507U 20068X   26182.98406687  .00028502  00000+0  57222-3 0  9992
2 46507  97.8609 192.3682 0001453 311.7447  48.3676 15.46642391318023
GREENCUBE (IO-117)      
1 53109U 22080E   26181.72466670 -.00000003  00000+0  00000+0 0  9998
2 53109  70.1437 293.5372 0008958 286.6703  73.2973  6.42583253 92937
SITRO-AIS 5 (KATYS)     
1 57176U 23091L   26183.24692598  .00013772  00000+0  47843-3 0  9994
2 57176  97.5051 247.2920 0011978  56.3331 303.9050 15.29805221166646
SITRO-AIS 6 (CHIRKIN)   
1 57192U 23091AC  26183.26087269  .00012091  00000+0  46861-3 0  9999
2 57192  97.5058 246.3447 0012422  59.5193 300.7271 15.26224836166588
SITRO-AIS 8 (ANOKHIN)   
1 57193U 23091AD  26183.23734537  .00016476  00000+0  52526-3 0  9990
2 57193  97.5048 248.9329 0010835  52.4959 307.7266 15.32549416166754
SITRO-AIS 7 (FARTUSHNIY)
1 57194U 23091AE  26183.26713239  .00011615  00000+0  45467-3 0  9996
2 57194  97.5055 246.1680 0012335  60.5182 299.7285 15.25905856166575
SITRO-AIS 10 (BURDAEV)  
1 57199U 23091AK  26183.26987908  .00022449  00000+0  57873-3 0  9998
2 57199  97.5074 254.1776 0006138  31.9159 328.2457 15.39186268167085
SITRO-AIS 9 (SHCHUKIN)  
1 57201U 23091AM  26183.23611246  .00021825  00000+0  57202-3 0  9991
2 57201  97.5071 253.8610 0006424  31.9374 328.2259 15.38681210167060
SITRO-AIS 12 (SMIRENNIY)
1 57204U 23091AQ  26183.28889021  .00022664  00000+0  58823-3 0  9999
2 57204  97.5085 254.3919 0005896  25.7710 334.3828 15.38977688167093
SITRO-AIS 11 (SHEFFER)  
1 57208U 23091AU  26183.29809447  .00022275  00000+0  57012-3 0  9995
2 57208  97.5083 254.6574 0005802  25.6888 334.4645 15.39409963167115
SITRO-AIS 25            
1 59066U 24039R   26183.31664921  .00003817  00000+0  29932-3 0  9992
2 59066  95.3897 245.4893 0142261 275.1598  83.3406 14.93585423126981
SITRO-AIS 26            
1 59067U 24039S   26183.25308990  .00003540  00000+0  27910-3 0  9994
2 59067  95.3900 245.3402 0142622 276.0056  82.4932 14.93379482126960
SITRO-AIS 27            
1 59068U 24039T   26183.28608302  .00002679  00000+0  21006-3 0  9990
2 59068  95.3903 245.6419 0141771 274.4522  84.0519 14.93801355126990
SITRO-AIS 28            
1 59071U 24039U   26183.26319236  .00003602  00000+0  28124-3 0  9992
2 59071  95.3905 245.6740 0141523 274.3599  84.1468 14.93836642126992
GRBBETA                 
1 60237U 24128C   26183.28521787  .00004329  00000+0  29929-3 0  9996
2 60237  61.9886 163.2905 0038690 137.9215 222.4861 15.06732068108549
OOV-CUBE (TUBSAT-30)    
1 60240U 24128F   26183.29264765  .00002351  00000+0  18701-3 0  9990
2 60240  61.9933 172.8979 0042726 137.0768 223.3671 15.02829390108384
ROBUSTA-3A (MEDITERRAN*)
1 60243U 24128J   26183.28186767  .00007637  00000+0  44889-3 0  9995
2 60243  61.9853 154.8574 0039650 131.0264 229.4270 15.11829128108703
LASARSAT                
1 62391U 24247Q   26183.28195665  .00037231  00000+0  71734-3 0  9992
2 62391  44.9721 177.3345 0006613  68.9888 291.1709 15.47268601 85656
CROCUBE                 
1 62394U 24247T   26183.26077660  .00043599  00000+0  78103-3 0  9998
2 62394  44.9691 174.5342 0006478  75.1846 284.9762 15.49290769 85688
FORESAIL-1 PRIME        
1 66778U 25276DS  26183.01836615  .00005916  00000+0  28725-3 0  9993
2 66778  97.4198 256.0184 0003650  73.2053 286.9581 15.18834369 32657
KNACKSAT-2              
1 67683U 98067XZ  26183.27043350  .00047788  00000+0  55339-3 0  9995
2 67683  51.6255 218.5343 0008370 281.3126  78.6927 15.61304103 22639
